start=new Date('2022-08-22T00:00:00.000Z').valueOf();
sats=[{"OBJECT_TYPE":"PAYLOAD","BSTAR":"0.00051332000000","EPOCH":"2022-08-21T22:21:58.735584","TLE_LINE2":"2 47399  53.0533  98.7444 0001601  81.7080 278.4090 15.06389969 88014","NORAD_CAT_ID":"47399","COUNTRY_CODE":"US","MEAN_MOTION":"15.06389969","RA_OF_ASC_NODE":"98.7444","SITE":"AFETR","MEAN_MOTION_DDOT":"0.0000000000000","EPHEMERIS_TYPE":"0","REF_FRAME":"TEME","PERIAPSIS":"546.136","ARG_OF_PERICENTER":"81.7080","TIME_SYSTEM":"UTC","SEMIMAJOR_AXIS":"6925.379","GP_ID":"210690766","ECCENTRICITY":"0.00016010","LAUNCH_DATE":"2021-01-20","MEAN_MOTION_DOT":"0.00007371","ELEMENT_SET_NO":"999","MEAN_ELEMENT_THEORY":"SGP4","REV_AT_EPOCH":"8801","CENTER_NAME":"EARTH","INCLINATION":"53.0533","TLE_LINE1":"1 47399U 21005BC  22233.93192981  .00007371  00000-0  51332-3 0  9999","APOAPSIS":"548.353","MEAN_ANOMALY":"278.4090","DECAY_DATE":null,"RCS_SIZE":"LARGE","CLASSIFICATION_TYPE":"U","OBJECT_NAME":"STARLINK-2121","FILE":"3542671","OBJECT_ID":"2021-005BC","PERIOD":"95.593"},{"OBJECT_NAME":"STARLINK-2122","CLASSIFICATION_TYPE":"U","OBJECT_ID":"2021-005BD","FILE":"3542671","PERIOD":"95.593","TLE_LINE1":"1 47400U 21005BD  22233.89318396  .00000956  00000-0  83116-4 0  9995","MEAN_ANOMALY":"288.5331","APOAPSIS":"548.189","DECAY_DATE":null,"RCS_SIZE":"LARGE","ELEMENT_SET_NO":"999","REV_AT_EPOCH":"8829","MEAN_ELEMENT_THEORY":"SGP4","CENTER_NAME":"EARTH","INCLINATION":"53.0558","SEMIMAJOR_AXIS":"6925.405","GP_ID":"210691015","ECCENTRICITY":"0.00013260","LAUNCH_DATE":"2021-01-20","MEAN_MOTION_DOT":"0.00000956","PERIAPSIS":"546.352","ARG_OF_PERICENTER":"71.5802","TIME_SYSTEM":"UTC","EPHEMERIS_TYPE":"0","REF_FRAME":"TEME","COUNTRY_CODE":"US","MEAN_MOTION":"15.06381515","RA_OF_ASC_NODE":"78.6856","MEAN_MOTION_DDOT":"0.0000000000000","SITE":"AFETR","BSTAR":"0.00008311600000","OBJECT_TYPE":"PAYLOAD","EPOCH":"2022-08-21T21:26:11.094144","TLE_LINE2":"2 47400  53.0558  78.6856 0001326  71.5802 288.5331 15.06381515 88290","NORAD_CAT_ID":"47400"},{"NORAD_CAT_ID":"47401","TLE_LINE2":"2 47401  53.0550  88.9083 0001563  74.9405 285.1757 15.06373514 88158","EPOCH":"2022-08-21T20:15:51.237792","BSTAR":"0.00033120000000","OBJECT_TYPE":"PAYLOAD","SITE":"AFETR","MEAN_MOTION_DDOT":"0.0000000000000","RA_OF_ASC_NODE":"88.9083","MEAN_MOTION":"15.06373514","COUNTRY_CODE":"US","REF_FRAME":"TEME","EPHEMERIS_TYPE":"0","TIME_SYSTEM":"UTC","ARG_OF_PERICENTER":"74.9405","PERIAPSIS":"546.212","MEAN_MOTION_DOT":"0.00004652","LAUNCH_DATE":"2021-01-20","ECCENTRICITY":"0.00015630","GP_ID":"210691268","SEMIMAJOR_AXIS":"6925.430","INCLINATION":"53.0550","REV_AT_EPOCH":"8815","CENTER_NAME":"EARTH","MEAN_ELEMENT_THEORY":"SGP4","ELEMENT_SET_NO":"999","RCS_SIZE":"LARGE","DECAY_DATE":null,"TLE_LINE1":"1 47401U 21005BE  22233.84434303  .00004652  00000-0  33120-3 0  9994","APOAPSIS":"548.377","MEAN_ANOMALY":"285.1757","PERIOD":"95.594","OBJECT_ID":"2021-005BE","FILE":"3542671","OBJECT_NAME":"STARLINK-2123","CLASSIFICATION_TYPE":"U"},{"TIME_SYSTEM":"UTC","ARG_OF_PERICENTER":"88.6453","PERIAPSIS":"546.309","REF_FRAME":"TEME","EPHEMERIS_TYPE":"0","MEAN_MOTION_DDOT":"0.0000000000000","SITE":"AFETR","RA_OF_ASC_NODE":"88.8121","MEAN_MOTION":"15.06392719","COUNTRY_CODE":"US","NORAD_CAT_ID":"47402","TLE_LINE2":"2 47402  53.0538  88.8121 0001339  88.6453 271.4690 15.06392719 88155","EPOCH":"2022-08-21T20:42:23.414400","OBJECT_TYPE":"PAYLOAD","BSTAR":"0.00021388000000","PERIOD":"95.593","FILE":"3542671","OBJECT_ID":"2021-005BF","CLASSIFICATION_TYPE":"U","OBJECT_NAME":"STARLINK-2124","RCS_SIZE":"LARGE","DECAY_DATE":null,"MEAN_ANOMALY":"271.4690","TLE_LINE1":"1 47402U 21005BF  22233.86277100  .00002905  00000-0  21388-3 0  9999","APOAPSIS":"548.163","INCLINATION":"53.0538","REV_AT_EPOCH":"8815","MEAN_ELEMENT_THEORY":"SGP4","CENTER_NAME":"EARTH","ELEMENT_SET_NO":"999","MEAN_MOTION_DOT":"0.00002905","LAUNCH_DATE":"2021-01-20","ECCENTRICITY":"0.00013390","SEMIMAJOR_AXIS":"6925.371","GP_ID":"210690017"},{"FILE":"3542671","OBJECT_ID":"2021-005BG","CLASSIFICATION_TYPE":"U","OBJECT_NAME":"STARLINK-2127","PERIOD":"95.592","TLE_LINE1":"1 47403U 21005BG  22233.87014268  .00004777  00000-0  33944-3 0  9995","APOAPSIS":"548.268","MEAN_ANOMALY":"273.2989","RCS_SIZE":"LARGE","DECAY_DATE":null,"REV_AT_EPOCH":"8815","MEAN_ELEMENT_THEORY":"SGP4","CENTER_NAME":"EARTH","ELEMENT_SET_NO":"999","INCLINATION":"53.0555","ECCENTRICITY":"0.00015040","SEMIMAJOR_AXIS":"6925.362","GP_ID":"210690267","MEAN_MOTION_DOT":"0.00004777","LAUNCH_DATE":"2021-01-20","ARG_OF_PERICENTER":"86.8172","PERIAPSIS":"546.185","TIME_SYSTEM":"UTC","EPHEMERIS_TYPE":"0","REF_FRAME":"TEME","MEAN_MOTION":"15.06395665","COUNTRY_CODE":"US","SITE":"AFETR","MEAN_MOTION_DDOT":"0.0000000000000","RA_OF_ASC_NODE":"88.7864","EPOCH":"2022-08-21T20:53:00.327552","OBJECT_TYPE":"PAYLOAD","BSTAR":"0.00033944000000","NORAD_CAT_ID":"47403","TLE_LINE2":"2 47403  53.0555  88.7864 0001504  86.8172 273.2989 15.06395665 88154"},{"OBJECT_NAME":"STARLINK-2128","CLASSIFICATION_TYPE":"U","OBJECT_ID":"2021-005BH","FILE":"3542671","PERIOD":"95.593","APOAPSIS":"548.101","TLE_LINE1":"1 47404U 21005BH  22233.86647175  .00009029  00000-0  62436-3 0  9997","MEAN_ANOMALY":"285.8880","DECAY_DATE":null,"RCS_SIZE":"LARGE","ELEMENT_SET_NO":"999","REV_AT_EPOCH":"8815","MEAN_ELEMENT_THEORY":"SGP4","CENTER_NAME":"EARTH","INCLINATION":"53.0541","GP_ID":"210691515","SEMIMAJOR_AXIS":"6925.368","ECCENTRICITY":"0.00012540","LAUNCH_DATE":"2021-01-20","MEAN_MOTION_DOT":"0.00009029","PERIAPSIS":"546.365","ARG_OF_PERICENTER":"74.2248","TIME_SYSTEM":"UTC","EPHEMERIS_TYPE":"0","REF_FRAME":"TEME","COUNTRY_CODE":"US","MEAN_MOTION":"15.06393653","RA_OF_ASC_NODE":"88.8044","SITE":"AFETR","MEAN_MOTION_DDOT":"0.0000000000000","BSTAR":"0.00062436000000","OBJECT_TYPE":"PAYLOAD","EPOCH":"2022-08-21T20:47:43.159200","TLE_LINE2":"2 47404  53.0541  88.8044 0001254  74.2248 285.8880 15.06393653 88152","NORAD_CAT_ID":"47404"},{"NORAD_CAT_ID":"47405","TLE_LINE2":"2 47405  53.0536 118.8684 0001540  59.6490 300.4651 15.06386792 87723","EPOCH":"2022-08-21T20:22:29.035488","OBJECT_TYPE":"PAYLOAD","BSTAR":"0.00006734700000","MEAN_MOTION_DDOT":"0.0000000000000","SITE":"AFETR","RA_OF_ASC_NODE":"118.8684","MEAN_MOTION":"15.06386792","COUNTRY_CODE":"US","REF_FRAME":"TEME","EPHEMERIS_TYPE":"0","TIME_SYSTEM":"UTC","ARG_OF_PERICENTER":"59.6490","PERIAPSIS":"546.188","MEAN_MOTION_DOT":"0.00000721","LAUNCH_DATE":"2021-01-20","ECCENTRICITY":"0.00015400","GP_ID":"210691768","SEMIMAJOR_AXIS":"6925.389","INCLINATION":"53.0536","REV_AT_EPOCH":"8772","MEAN_ELEMENT_THEORY":"SGP4","CENTER_NAME":"EARTH","ELEMENT_SET_NO":"999","RCS_SIZE":"LARGE","DECAY_DATE":null,"APOAPSIS":"548.321","TLE_LINE1":"1 47405U 21005BJ  22233.84894717  .00000721  00000-0  67347-4 0  9999","MEAN_ANOMALY":"300.4651","PERIOD":"95.593","FILE":"3542671","OBJECT_ID":"2021-005BJ","CLASSIFICATION_TYPE":"U","OBJECT_NAME":"STARLINK-2130"},{"PERIOD":"95.593","OBJECT_ID":"2021-005BK","FILE":"3542671","OBJECT_NAME":"STARLINK-2133","CLASSIFICATION_TYPE":"U","RCS_SIZE":"LARGE","DECAY_DATE":null,"APOAPSIS":"548.320","TLE_LINE1":"1 47406U 21005BK  22233.87752049  .00001250  00000-0  10286-3 0  9991","MEAN_ANOMALY":"263.2792","INCLINATION":"53.0549","CENTER_NAME":"EARTH","REV_AT_EPOCH":"8815","MEAN_ELEMENT_THEORY":"SGP4","ELEMENT_SET_NO":"999","MEAN_MOTION_DOT":"0.00001250","LAUNCH_DATE":"2021-01-20","ECCENTRICITY":"0.00015110","SEMIMAJOR_AXIS":"6925.408","GP_ID":"210690517","TIME_SYSTEM":"UTC","ARG_OF_PERICENTER":"96.8369","PERIAPSIS":"546.227","REF_FRAME":"TEME","EPHEMERIS_TYPE":"0","SITE":"AFETR","MEAN_MOTION_DDOT":"0.0000000000000","RA_OF_ASC_NODE":"88.7568","MEAN_MOTION":"15.06380484","COUNTRY_CODE":"US","NORAD_CAT_ID":"47406","TLE_LINE2":"2 47406  53.0549  88.7568 0001511  96.8369 263.2792 15.06380484 88152","EPOCH":"2022-08-21T21:03:37.770336","BSTAR":"0.00010286000000","OBJECT_TYPE":"PAYLOAD"},{"FILE":"3542671","OBJECT_ID":"2021-005BL","CLASSIFICATION_TYPE":"U","OBJECT_NAME":"STARLINK-2134","PERIOD":"95.592","TLE_LINE1":"1 47407U 21005BL  22233.88488694  .00006538  00000-0  45739-3 0  9990","APOAPSIS":"548.308","MEAN_ANOMALY":"278.9410","RCS_SIZE":"LARGE","DECAY_DATE":null,"REV_AT_EPOCH":"8815","CENTER_NAME":"EARTH","MEAN_ELEMENT_THEORY":"SGP4","ELEMENT_SET_NO":"999","INCLINATION":"53.0542","ECCENTRICITY":"0.00015780","GP_ID":"210690767","SEMIMAJOR_AXIS":"6925.350","MEAN_MOTION_DOT":"0.00006538","LAUNCH_DATE":"2021-01-20","ARG_OF_PERICENTER":"81.1758","PERIAPSIS":"546.122","TIME_SYSTEM":"UTC","EPHEMERIS_TYPE":"0","REF_FRAME":"TEME","MEAN_MOTION":"15.06399463","COUNTRY_CODE":"US","MEAN_MOTION_DDOT":"0.0000000000000","SITE":"AFETR","RA_OF_ASC_NODE":"88.7212","EPOCH":"2022-08-21T21:14:14.231616","OBJECT_TYPE":"PAYLOAD","BSTAR":"0.00045739000000","NORAD_CAT_ID":"47407","TLE_LINE2":"2 47407  53.0542  88.7212 0001578  81.1758 278.9410 15.06399463 88151"},{"RA_OF_ASC_NODE":"88.8565","SITE":"AFETR","MEAN_MOTION_DDOT":"0.0000000000000","COUNTRY_CODE":"US","MEAN_MOTION":"15.06388727","TLE_LINE2":"2 47408  53.0548  88.8565 0001400  95.4001 264.7148 15.06388727 88155","NORAD_CAT_ID":"47408","OBJECT_TYPE":"PAYLOAD","BSTAR":"0.00009189300000","EPOCH":"2022-08-21T20:31:46.862400","TIME_SYSTEM":"UTC","PERIAPSIS":"546.279","ARG_OF_PERICENTER":"95.4001","REF_FRAME":"TEME","EPHEMERIS_TYPE":"0","INCLINATION":"53.0548","ELEMENT_SET_NO":"999","CENTER_NAME":"EARTH","REV_AT_EPOCH":"8815","MEAN_ELEMENT_THEORY":"SGP4","LAUNCH_DATE":"2021-01-20","MEAN_MOTION_DOT":"0.00001087","GP_ID":"210691016","SEMIMAJOR_AXIS":"6925.383","ECCENTRICITY":"0.00014000","PERIOD":"95.593","CLASSIFICATION_TYPE":"U","OBJECT_NAME":"STARLINK-2135","FILE":"3542671","OBJECT_ID":"2021-005BM","DECAY_DATE":null,"RCS_SIZE":"LARGE","APOAPSIS":"548.218","TLE_LINE1":"1 47408U 21005BM  22233.85540350  .00001087  00000-0  91893-4 0  9993","MEAN_ANOMALY":"264.7148"}];
